{"type": "FeatureCollection", "features": [ {"type": "Feature", "properties": {"norad_id": 34529, "name": "IRIDIUM 33 DEB", "group": "iridium-33-debris", "lat": -67.45917317579716, "lon": -133.50056996303326, "alt_km": 762.0538418380165, "timestamp": "2025-12-07T09:35:10.174608+00:00", "meta": {"OBJECT_NAME": "IRIDIUM 33 DEB", "OBJECT_ID": "1997-051HW", "EPOCH": "2025-12-06T15:46:10.737408", "MEAN_MOTION": 14.4060862, "ECCENTRICITY": 0.00040518, "INCLINATION": 86.3646, "RA_OF_ASC_NODE": 38.0046, "ARG_OF_PERICENTER": 197.9871, "MEAN_ANOMALY": 162.1186, "EPHEMERIS_TYPE": 0, "CLASSIFICATION_TYPE": "U", "NORAD_CAT_ID": 34529, "ELEMENT_SET_NO": 999, "REV_AT_EPOCH": 88054, "BSTAR": 0.0002277972, "MEAN_MOTION_DOT": 7.46e-06, "MEAN_MOTION_DDOT": 0}, "tle": {"line1": "1 34529U 97051HW  25340.65706872  .00000746  00000+0  22780-3 0  9998", "line2": "2 34529  86.3646  38.0046 0004051 197.9871 162.1186 14.40608620880542"}}, "geometry": {"type": "Point", "coordinates": [-133.50056996303326, -67.45917317579716]}}, {"type": "Feature", "properties": {"norad_id": 34538, "name": "IRIDIUM 33 DEB", "group": "iridium-33-debris", "lat": 46.26015242632234, "lon": 11.79659584462964, "alt_km": 734.0327538064303, "timestamp": "2025-12-07T09:35:10.174618+00:00", "meta": {"OBJECT_NAME": "IRIDIUM 33 DEB", "OBJECT_ID": "1997-051JF", "EPOCH": "2025-12-06T08:27:05.441184", "MEAN_MOTION": 14.42592523, "ECCENTRICITY": 0.00336215, "INCLINATION": 86.2774, "RA_OF_ASC_NODE": 8.3539, "ARG_OF_PERICENTER": 349.5776, "MEAN_ANOMALY": 21.1302, "EPHEMERIS_TYPE": 0, "CLASSIFICATION_TYPE": "U", "NORAD_CAT_ID": 34538, "ELEMENT_SET_NO": 999, "REV_AT_EPOCH": 87664, "BSTAR": 0.0017279991, "MEAN_MOTION_DOT": 5.794e-05, "MEAN_MOTION_DDOT": 0}, "tle": {"line1": "1 34538U 97051JF  25340.35214631  .00005794  00000+0  17280-2 0  9998", "line2": "2 34538  86.2774   8.3539 0033621 349.5776  21.1302 14.42592523876640"}}, "geometry": {"type": "Point", "coordinates": [11.79659584462964, 46.26015242632234]}}, {"type": "Feature", "properties": {"norad_id": 34540, "name": "IRIDIUM 33 DEB", "group": "iridium-33-debris", "lat": -18.444569388919103, "lon": 131.28080450889178, "alt_km": 639.6568306979043, "timestamp": "2025-12-07T09:35:10.174629+00:00", "meta": {"OBJECT_NAME": "IRIDIUM 33 DEB", "OBJECT_ID": "1997-051JH", "EPOCH": "2025-12-06T21:23:37.747968", "MEAN_MOTION": 14.75129785, "ECCENTRICITY": 0.00154132, "INCLINATION": 86.3105, "RA_OF_ASC_NODE": 310.2798, "ARG_OF_PERICENTER": 180.3432, "MEAN_ANOMALY": 201.9218, "EPHEMERIS_TYPE": 0, "CLASSIFICATION_TYPE": "U", "NORAD_CAT_ID": 34540, "ELEMENT_SET_NO": 999, "REV_AT_EPOCH": 88935, "BSTAR": 0.0025270444, "MEAN_MOTION_DOT": 0.00017126, "MEAN_MOTION_DDOT": 0}, "tle": {"line1": "1 34540U 97051JH  25340.89140912  .00017126  00000+0  25270-2 0  9990", "line2": "2 34540  86.3105 310.2798 0015413 180.3432 201.9218 14.75129785889351"}}, "geometry": {"type": "Point", "coordinates": [131.28080450889178, -18.444569388919103]}}, {"type": "Feature", "properties": {"norad_id": 34648, "name": "IRIDIUM 33 DEB", "group": "iridium-33-debris", "lat": 48.512717253277664, "lon": 100.01186447233216, "alt_km": 984.2854950626388, "timestamp": "2025-12-07T09:35:10.174639+00:00", "meta": {"OBJECT_NAME": "IRIDIUM 33 DEB", "OBJECT_ID": "1997-051JZ", "EPOCH": "2025-12-06T19:20:47.044320", "MEAN_MOTION": 14.11197938, "ECCENTRICITY": 0.01849632, "INCLINATION": 86.3922, "RA_OF_ASC_NODE": 284.3423, "ARG_OF_PERICENTER": 317.3129, "MEAN_ANOMALY": 41.3805, "EPHEMERIS_TYPE": 0, "CLASSIFICATION_TYPE": "U", "NORAD_CAT_ID": 34648, "ELEMENT_SET_NO": 999, "REV_AT_EPOCH": 84877, "BSTAR": 0.013223828, "MEAN_MOTION_DOT": 0.00028092, "MEAN_MOTION_DDOT": 0}, "tle": {"line1": "1 34648U 97051JZ  25340.80610005  .00028092  00000+0  13224-1 0  9994", "line2": "2 34648  86.3922 284.3423 0184963 317.3129  41.3805 14.11197938848779"}}, "geometry": {"type": "Point", "coordinates": [100.01186447233216, 48.512717253277664]}}, {"type": "Feature", "properties": {"norad_id": 34651, "name": "IRIDIUM 33 DEB", "group": "iridium-33-debris", "lat": -84.5296182125462, "lon": 100.10987558070018, "alt_km": 751.5862979967651, "timestamp": "2025-12-07T09:35:10.174649+00:00", "meta": {"OBJECT_NAME": "IRIDIUM 33 DEB", "OBJECT_ID": "1997-051KC", "EPOCH": "2025-12-06T22:11:54.879936", "MEAN_MOTION": 14.25664536, "ECCENTRICITY": 0.01419317, "INCLINATION": 86.2838, "RA_OF_ASC_NODE": 143.05, "ARG_OF_PERICENTER": 222.4049, "MEAN_ANOMALY": 136.6106, "EPHEMERIS_TYPE": 0, "CLASSIFICATION_TYPE": "U", "NORAD_CAT_ID": 34651, "ELEMENT_SET_NO": 999, "REV_AT_EPOCH": 85813, "BSTAR": 0.004978077, "MEAN_MOTION_DOT": 0.00013145, "MEAN_MOTION_DDOT": 0}, "tle": {"line1": "1 34651U 97051KC  25340.92494074  .00013145  00000+0  49781-2 0  9998", "line2": "2 34651  86.2838 143.0500 0141931 222.4049 136.6106 14.25664536858131"}}, "geometry": {"type": "Point", "coordinates": [100.10987558070018, -84.5296182125462]}}, {"type": "Feature", "properties": {"norad_id": 34652, "name": "IRIDIUM 33 DEB", "group": "iridium-33-debris", "lat": -12.401399409174582, "lon": -18.42902608508628, "alt_km": 675.043980301065, "timestamp": "2025-12-07T09:35:10.174659+00:00", "meta": {"OBJECT_NAME": "IRIDIUM 33 DEB", "OBJECT_ID": "1997-051KD", "EPOCH": "2025-12-06T11:20:22.742016", "MEAN_MOTION": 14.61968403, "ECCENTRICITY": 0.00265973, "INCLINATION": 86.3308, "RA_OF_ASC_NODE": 342.792, "ARG_OF_PERICENTER": 320.8113, "MEAN_ANOMALY": 191.3091, "EPHEMERIS_TYPE": 0, "CLASSIFICATION_TYPE": "U", "NORAD_CAT_ID": 34652, "ELEMENT_SET_NO": 999, "REV_AT_EPOCH": 88392, "BSTAR": 0.0017876249, "MEAN_MOTION_DOT": 9.024e-05, "MEAN_MOTION_DDOT": 0}, "tle": {"line1": "1 34652U 97051KD  25340.47248544  .00009024  00000+0  17876-2 0  9999", "line2": "2 34652  86.3308 342.7920 0026597 320.8113 191.3091 14.61968403883920"}}, "geometry": {"type": "Point", "coordinates": [-18.42902608508628, -12.401399409174582]}}, {"type": "Feature", "properties": {"norad_id": 34690, "name": "IRIDIUM 33 DEB", "group": "iridium-33-debris", "lat": -16.621444113829675, "lon": 38.22904505019653, "alt_km": 710.2672429634686, "timestamp": "2025-12-07T09:35:10.174670+00:00", "meta": {"OBJECT_NAME": "IRIDIUM 33 DEB", "OBJECT_ID": "1997-051KM", "EPOCH": "2025-12-06T22:39:51.154848", "MEAN_MOTION": 14.55062942, "ECCENTRICITY": 0.00114779, "INCLINATION": 86.3784, "RA_OF_ASC_NODE": 39.5101, "ARG_OF_PERICENTER": 46.8175, "MEAN_ANOMALY": 74.4761, "EPHEMERIS_TYPE": 0, "CLASSIFICATION_TYPE": "U", "NORAD_CAT_ID": 34690, "ELEMENT_SET_NO": 999, "REV_AT_EPOCH": 88010, "BSTAR": 0.0008002396, "MEAN_MOTION_DOT": 3.473e-05, "MEAN_MOTION_DDOT": 0}, "tle": {"line1": "1 34690U 97051KM  25340.94434207  .00003473  00000+0  80024-3 0  9994", "line2": "2 34690  86.3784  39.5101 0011477  46.8175  74.4761 14.55062942880104"}}, "geometry": {"type": "Point", "coordinates": [38.22904505019653, -16.621444113829675]}}, {"type": "Feature", "properties": {"norad_id": 34693, "name": "IRIDIUM 33 DEB", "group": "iridium-33-debris", "lat": 85.7469015670558, "lon": 66.15407249752124, "alt_km": 471.1716889988802, "timestamp": "2025-12-07T09:35:10.174681+00:00", "meta": {"OBJECT_NAME": "IRIDIUM 33 DEB", "OBJECT_ID": "1997-051KQ", "EPOCH": "2025-12-06T22:24:05.873184", "MEAN_MOTION": 15.25940657, "ECCENTRICITY": 0.00151715, "INCLINATION": 86.3058, "RA_OF_ASC_NODE": 306.7051, "ARG_OF_PERICENTER": 62.2889, "MEAN_ANOMALY": 351.3098, "EPHEMERIS_TYPE": 0, "CLASSIFICATION_TYPE": "U", "NORAD_CAT_ID": 34693, "ELEMENT_SET_NO": 999, "REV_AT_EPOCH": 88826, "BSTAR": 0.0063256345, "MEAN_MOTION_DOT": 0.00166162, "MEAN_MOTION_DDOT": 0}, "tle": {"line1": "1 34693U 97051KQ  25340.93340131  .00166162  00000+0  63256-2 0  9990", "line2": "2 34693  86.3058 306.7051 0015171  62.2889 351.3098 15.25940657888264"}}, "geometry": {"type": "Point", "coordinates": [66.15407249752124, 85.7469015670558]}}, {"type": "Feature", "properties": {"norad_id": 34696, "name": "IRIDIUM 33 DEB", "group": "iridium-33-debris", "lat": -65.03386218369562, "lon": 21.769403756128106, "alt_km": 702.1022507555272, "timestamp": "2025-12-07T09:35:10.174691+00:00", "meta": {"OBJECT_NAME": "IRIDIUM 33 DEB", "OBJECT_ID": "1997-051KT", "EPOCH": "2025-12-06T02:52:04.787040", "MEAN_MOTION": 14.64542505, "ECCENTRICITY": 0.00743833, "INCLINATION": 86.1861, "RA_OF_ASC_NODE": 30.6015, "ARG_OF_PERICENTER": 190.2321, "MEAN_ANOMALY": 199.6062, "EPHEMERIS_TYPE": 0, "CLASSIFICATION_TYPE": "U", "NORAD_CAT_ID": 34696, "ELEMENT_SET_NO": 999, "REV_AT_EPOCH": 86576, "BSTAR": 0.0082420437, "MEAN_MOTION_DOT": 0.00045777, "MEAN_MOTION_DDOT": 0}, "tle": {"line1": "1 34696U 97051KT  25340.11949985  .00045777  00000+0  82420-2 0  9997", "line2": "2 34696  86.1861  30.6015 0074383 190.2321 199.6062 14.64542505865769"}}, "geometry": {"type": "Point", "coordinates": [21.769403756128106, -65.03386218369562]}}, {"type": "Feature", "properties": {"norad_id": 34765, "name": "IRIDIUM 33 DEB", "group": "iridium-33-debris", "lat": -66.58236392951642, "lon": 26.55303808168866, "alt_km": 759.3823239099511, "timestamp": "2025-12-07T09:35:10.174702+00:00", "meta": {"OBJECT_NAME": "IRIDIUM 33 DEB", "OBJECT_ID": "1997-051LJ", "EPOCH": "2025-12-06T14:30:03.375072", "MEAN_MOTION": 14.40440942, "ECCENTRICITY": 0.00148947, "INCLINATION": 86.3396, "RA_OF_ASC_NODE": 35.3938, "ARG_OF_PERICENTER": 233.6744, "MEAN_ANOMALY": 258.3156, "EPHEMERIS_TYPE": 0, "CLASSIFICATION_TYPE": "U", "NORAD_CAT_ID": 34765, "ELEMENT_SET_NO": 999, "REV_AT_EPOCH": 87525, "BSTAR": 0.00076473215, "MEAN_MOTION_DOT": 2.451e-05, "MEAN_MOTION_DDOT": 0}, "tle": {"line1": "1 34765U 97051LJ  25340.60420573  .00002451  00000+0  76473-3 0  9999", "line2": "2 34765  86.3396  35.3938 0014894 233.6744 258.3156 14.40440942875257"}}, "geometry": {"type": "Point", "coordinates": [26.55303808168866, -66.58236392951642]}}]}